NORAD_CAT_ID,OBJECT_NAME,OBJECT_TYPE,EPOCH,MEAN_MOTION,ECCENTRICITY,INCLINATION,RA_OF_ASC_NODE,ARG_OF_PERICENTER,MEAN_ANOMALY,BSTAR,MEAN_MOTION_DOT,MEAN_MOTION_DDOT,TLE_LINE0,TLE_LINE1,TLE_LINE2,SEMIMAJOR_AXIS,PERIOD,APOGEE,PERIGEE,DECAYED
52830.0,STARLINK-4091,PAYLOAD,2024-03-02 09:34:13,15.08843579,0.0001569,53.2166,104.1403,93.6229,266.4942,8.3355e-05,1.039e-05,0.0,0 STARLINK-4091,1 52830U 22062A   24062.39876936  .00001039  00000-0  83355-4 0  9996,2 52830  53.2166 104.1403 0001569  93.6229 266.4942 15.08843579 94475,6917.869,95.437,540.82,538.649,0.0
52830.0,STARLINK-4091,PAYLOAD,2024-03-03 03:03:28,15.08837352,0.0001717,53.2177,100.8685,98.155,261.9637,2.924e-05,1.77e-06,0.0,0 STARLINK-4091,1 52830U 22062A   24063.12741505  .00000177  00000-0  29240-4 0  9996,2 52830  53.2177 100.8685 0001717  98.1550 261.9637 15.08837352 95096,6917.888,95.438,540.941,538.566,0.0
52830.0,STARLINK-4091,PAYLOAD,2024-03-03 07:49:37,15.08840024,0.0001718,53.2177,99.9767,99.5932,260.5255,4.0397e-05,3.55e-06,0.0,0 STARLINK-4091,1 52830U 22062A   24063.32613311  .00000355  00000-0  40397-4 0  9995,2 52830  53.2177  99.9767 0001718  99.5932 260.5255 15.08840024 94613,6917.88,95.438,540.934,538.557,0.0
52830.0,STARLINK-4091,PAYLOAD,2024-03-04 10:51:11,15.08811877,0.0001874,53.218,94.9256,99.4053,260.7151,0.00064348,9.96e-05,0.0,0 STARLINK-4091,1 52830U 22062A   24064.45221802  .00009960  00000-0  64348-3 0  9992,2 52830  53.2180  94.9256 0001874  99.4053 260.7151 15.08811877 95297,6917.966,95.439,541.128,538.535,0.0
52830.0,STARLINK-4091,PAYLOAD,2024-03-04 18:48:07,15.08830522,0.0001835,53.2175,93.4363,91.1466,268.9737,2.3813e-05,9.1e-07,0.0,0 STARLINK-4091,1 52830U 22062A   24064.78342192  .00000091  00000-0  23813-4 0  9993,2 52830  53.2175  93.4363 0001835  91.1466 268.9737 15.08830522 94835,6917.909,95.438,541.044,538.505,0.0
52830.0,STARLINK-4091,PAYLOAD,2024-03-05 09:06:36,15.08828362,0.0001602,53.2175,90.7628,98.0982,262.0192,-5.9526e-06,-3.83e-06,0.0,0 STARLINK-4091,1 52830U 22062A   24065.37958755 -.00000383  00000-0 -59526-5 0  9994,2 52830  53.2175  90.7628 0001602  98.0982 262.0192 15.08828362 94929,6917.916,95.438,540.889,538.673,0.0
52830.0,STARLINK-4091,PAYLOAD,2024-03-06 10:32:45,15.08845991,0.000167,53.2172,86.0043,97.6903,262.4279,0.00014204,1.974e-05,0.0,0 STARLINK-4091,1 52830U 22062A   24066.43941822  .00001974  00000-0  14204-3 0  9996,2 52830  53.2172  86.0043 0001670  97.6903 262.4279 15.08845991 95599,6917.862,95.437,540.882,538.572,0.0
52830.0,STARLINK-4091,PAYLOAD,2024-03-07 07:12:46,15.08847812,0.0001506,53.2156,82.1365,99.4924,260.6239,0.00037385,5.668e-05,0.0,0 STARLINK-4091,1 52830U 22062A   24067.30053937  .00005668  00000-0  37385-3 0  9993,2 52830  53.2156  82.1365 0001506  99.4924 260.6239 15.08847812 95215,6917.857,95.437,540.763,538.68,0.0
52830.0,STARLINK-4091,PAYLOAD,2024-03-08 05:28:10,15.08841312,0.0001337,53.2159,77.975,94.168,265.9465,1.0525e-05,-1.2e-06,0.0,0 STARLINK-4091,1 52830U 22062A   24068.22790073 -.00000120  00000-0  10525-4 0  9991,2 52830  53.2159  77.9750 0001337  94.1680 265.9465 15.08841312 95860,6917.876,95.437,540.666,538.816,0.0
52830.0,STARLINK-4091,PAYLOAD,2024-03-08 10:14:19,15.08846328,0.0001606,53.2163,77.0815,94.4745,265.6431,0.00010745,1.423e-05,0.0,0 STARLINK-4091,1 52830U 22062A   24068.42661986  .00001423  00000-0  10745-3 0  9992,2 52830  53.2163  77.0815 0001606  94.4745 265.6431 15.08846328 95381,6917.861,95.437,540.837,538.615,0.0
52830.0,STARLINK-4091,PAYLOAD,2024-03-09 05:19:01,15.08790932,0.0001482,53.2151,73.512,81.2378,278.8782,-0.00051677,-8.492e-05,0.0,0 STARLINK-4091,1 52830U 22062A   24069.22154298 -.00008492  00000-0 -51677-3 0  9998,2 52830  53.2151  73.5120 0001482  81.2378 278.8782 15.08790932 96011,6918.03,95.441,540.921,538.87,0.0
52830.0,STARLINK-4091,PAYLOAD,2024-03-09 10:05:08,15.08839368,0.000145,53.2181,72.6236,94.7169,265.3989,0.0002429,3.58e-05,0.0,0 STARLINK-4091,1 52830U 22062A   24069.42023897  .00003580  00000-0  24290-3 0  9992,2 52830  53.2181  72.6236 0001450  94.7169 265.3989 15.08839368 96044,6917.882,95.438,540.75,538.744,0.0
52830.0,STARLINK-4091,PAYLOAD,2024-03-10 06:45:08,15.08854457,0.0001614,53.2176,68.7567,95.5754,264.5422,0.00042096,6.421e-05,0.0,0 STARLINK-4091,1 52830U 22062A   24070.28135267  .00006421  00000-0  42096-3 0  9994,2 52830  53.2176  68.7567 0001614  95.5754 264.5422 15.08854457 96175,6917.836,95.437,540.818,538.585,0.0
52830.0,STARLINK-4091,PAYLOAD,2024-03-10 16:17:27,15.0885324,0.0001613,53.2175,66.9728,95.4122,264.7054,0.00036167,5.475e-05,0.0,0 STARLINK-4091,1 52830U 22062A   24070.67879185  .00005475  00000-0  36167-3 0  9991,2 52830  53.2175  66.9728 0001613  95.4122 264.7054 15.08853240 95722,6917.84,95.437,540.821,538.589,0.0
52830.0,STARLINK-4091,PAYLOAD,2024-03-11 05:00:33,15.08843802,0.0001791,53.2193,64.5972,107.8996,252.2192,0.00056859,8.774e-05,0.0,0 STARLINK-4091,1 52830U 22062A   24071.20871783  .00008774  00000-0  56859-3 0  9992,2 52830  53.2193  64.5972 0001791 107.8996 252.2192 15.08843802 96315,6917.869,95.437,540.973,538.495,0.0
52830.0,STARLINK-4091,PAYLOAD,2024-03-11 06:35:56,15.08843433,0.0001747,53.2193,64.2989,102.5442,257.5746,0.00051414,7.905e-05,0.0,0 STARLINK-4091,1 52830U 22062A   24071.27495747  .00007905  00000-0  51414-3 0  9998,2 52830  53.2193  64.2989 0001747 102.5442 257.5746 15.08843433 95816,6917.87,95.437,540.943,538.526,0.0
52830.0,STARLINK-4091,PAYLOAD,2024-03-12 06:26:42,15.08852874,0.0001546,53.2187,59.8379,101.9317,258.1848,-5.3188e-05,-1.135e-05,0.0,0 STARLINK-4091,1 52830U 22062A   24072.26854922 -.00001135  00000-0 -53188-4 0  9994,2 52830  53.2187  59.8379 0001546 101.9317 258.1848 15.08852874 96475,6917.841,95.437,540.776,538.637,0.0
52830.0,STARLINK-4091,PAYLOAD,2024-03-12 15:59:01,15.0884982,0.0001585,53.2191,58.0529,96.2273,263.8899,-3.1018e-05,-7.82e-06,0.0,0 STARLINK-4091,1 52830U 22062A   24072.66598809 -.00000782  00000-0 -31018-4 0  9992,2 52830  53.2191  58.0529 0001585  96.2273 263.8899 15.08849820 96025,6917.85,95.437,540.812,538.619,0.0
52830.0,STARLINK-4091,PAYLOAD,2024-03-13 04:42:06,15.08841431,0.000157,53.2187,55.6745,94.9979,265.1192,-4.4022e-05,-9.89e-06,0.0,0 STARLINK-4091,1 52830U 22062A   24073.19591201 -.00000989  00000-0 -44022-4 0  9998,2 52830  53.2187  55.6745 0001570  94.9979 265.1192 15.08841431 96611,6917.876,95.437,540.827,538.655,0.0
52830.0,STARLINK-4091,PAYLOAD,2024-03-13 06:17:29,15.08847795,0.0001884,53.2191,55.377,97.3594,262.7612,-0.00010591,-1.974e-05,0.0,0 STARLINK-4091,1 52830U 22062A   24073.26214959 -.00001974  00000-0 -10591-3 0  9996,2 52830  53.2191  55.3770 0001884  97.3594 262.7612 15.08847795 96113,6917.857,95.437,541.025,538.418,0.0
52830.0,STARLINK-4091,PAYLOAD,2024-03-13 22:11:21,15.08833755,0.0001499,53.2184,52.4012,91.8629,268.2535,2.2909e-05,7.7e-07,0.0,0 STARLINK-4091,1 52830U 22062A   24073.92455514  .00000077  00000-0  22909-4 0  9991,2 52830  53.2184  52.4012 0001499  91.8629 268.2535 15.08833755 96219,6917.899,95.438,540.801,538.727,0.0
52830.0,STARLINK-4091,PAYLOAD,2024-03-14 06:08:16,15.08843306,0.0001386,53.2176,50.9165,95.2656,264.8494,2.769e-05,1.53e-06,0.0,0 STARLINK-4091,1 52830U 22062A   24074.25574940  .00000153  00000-0  27690-4 0  9990,2 52830  53.2176  50.9165 0001386  95.2656 264.8494 15.08843306 96269,6917.87,95.437,540.694,538.776,0.0
52830.0,STARLINK-4091,PAYLOAD,2024-03-14 07:43:39,15.08847537,0.0001411,53.2177,50.6179,106.0085,254.1063,4.8904e-05,4.91e-06,0.0,0 STARLINK-4091,1 52830U 22062A   24074.32198538  .00000491  00000-0  48904-4 0  9999,2 52830  53.2177  50.6179 0001411 106.0085 254.1063 15.08847537 96789,6917.857,95.437,540.698,538.746,0.0
52830.0,STARLINK-4091,PAYLOAD,2024-03-15 04:23:40,15.08842137,0.0001416,53.2177,46.7506,94.2483,265.8671,5.2899e-05,5.54e-06,0.0,0 STARLINK-4091,1 52830U 22062A   24075.18310906  .00000554  00000-0  52899-4 0  9997,2 52830  53.2177  46.7506 0001416  94.2483 265.8671 15.08842137 96914,6917.874,95.437,540.718,538.759,0.0
52830.0,STARLINK-4091,PAYLOAD,2024-03-15 21:52:55,15.08832662,0.0001072,53.2175,43.4784,87.2183,272.8932,0.00018217,2.612e-05,0.0,0 STARLINK-4091,1 52830U 22062A   24075.91175072  .00002612  00000-0  18217-3 0  9993,2 52830  53.2175  43.4784 0001072  87.2183 272.8932 15.08832662 96517,6917.903,95.438,540.509,539.026,0.0
52830.0,STARLINK-4091,PAYLOAD,2024-03-16 07:25:13,15.08848058,0.0001512,53.2182,41.6949,97.7181,262.3983,3.2164e-05,2.24e-06,0.0,0 STARLINK-4091,1 52830U 22062A   24076.30918524  .00000224  00000-0  32164-4 0  9999,2 52830  53.2182  41.6949 0001512  97.7181 262.3983 15.08848058 97080,6917.856,95.437,540.767,538.675,0.0
52830.0,STARLINK-4091,PAYLOAD,2024-03-17 04:05:14,15.08843326,0.0001485,53.2189,37.8271,105.3264,254.7892,-3.4601e-05,-8.39e-06,0.0,0 STARLINK-4091,1 52830U 22062A   24077.17030967 -.00000839  00000-0 -34601-4 0  9993,2 52830  53.2189  37.8271 0001485 105.3264 254.7892 15.08843326 97211,6917.87,95.437,540.763,538.708,0.0
52830.0,STARLINK-4091,PAYLOAD,2024-03-17 07:16:00,15.08845251,0.0001418,53.2187,37.232,95.3553,264.7601,-4.4329e-05,-9.93e-06,0.0,0 STARLINK-4091,1 52830U 22062A   24077.30278855 -.00000993  00000-0 -44329-4 0  9997,2 52830  53.2187  37.2320 0001418  95.3553 264.7601 15.08845251 96726,6917.864,95.437,540.71,538.748,0.0
52830.0,STARLINK-4091,PAYLOAD,2024-03-18 03:56:02,15.08786323,0.0001747,53.2195,33.3656,100.9322,259.1866,0.00083858,0.00013064,0.0,0 STARLINK-4091,1 52830U 22062A   24078.16391910  .00013064  00000-0  83858-3 0  9990,2 52830  53.2195  33.3656 0001747 100.9322 259.1866 15.08786323 97362,6918.044,95.441,541.118,538.701,0.0
52830.0,STARLINK-4091,PAYLOAD,2024-03-18 21:25:16,15.08783062,0.0001763,53.2203,30.0964,90.9207,269.1987,0.00067285,0.0001042,0.0,0 STARLINK-4091,1 52830U 22062A   24078.89255651  .00010420  00000-0  67285-3 0  9990,2 52830  53.2203  30.0964 0001763  90.9207 269.1987 15.08783062 97470,6918.054,95.441,541.139,538.7,0.0
